{"type": "FeatureCollection", "features": [ {"type": "Feature", "properties": {"norad_id": 54234, "name": "NOAA 21 (JPSS-2)", "group": "weather", "lat": -74.59629593969571, "lon": 64.26316054128588, "alt_km": 835.7641984520742, "timestamp": "2025-12-07T20:38:13.723512+00:00", "meta": {"OBJECT_NAME": "NOAA 21 (JPSS-2)", "OBJECT_ID": "2022-150A", "EPOCH": "2025-12-07T05:53:44.252448", "MEAN_MOTION": 14.19521911, "ECCENTRICITY": 0.00024205, "INCLINATION": 98.7454, "RA_OF_ASC_NODE": 277.6227, "ARG_OF_PERICENTER": 48.5263, "MEAN_ANOMALY": 311.612, "EPHEMERIS_TYPE": 0, "CLASSIFICATION_TYPE": "U", "NORAD_CAT_ID": 54234, "ELEMENT_SET_NO": 999, "REV_AT_EPOCH": 15931, "BSTAR": 0.00011889031, "MEAN_MOTION_DOT": 2.07e-06, "MEAN_MOTION_DDOT": 0}, "tle": {"line1": "1 54234U 22150A   25341.24565107  .00000207  00000+0  11889-3 0  9991", "line2": "2 54234  98.7454 277.6227 0002420  48.5263 311.6120 14.19521911159313"}}, "geometry": {"type": "Point", "coordinates": [64.26316054128588, -74.59629593969571]}}, {"type": "Feature", "properties": {"norad_id": 54743, "name": "METEOSAT-12 (MTG-I1)", "group": "weather", "lat": -0.04043731419313913, "lon": 26.199844463077334, "alt_km": 35789.727304804146, "timestamp": "2025-12-07T20:38:13.723524+00:00", "meta": {"OBJECT_NAME": "METEOSAT-12 (MTG-I1)", "OBJECT_ID": "2022-170C", "EPOCH": "2025-12-07T06:47:09.325248", "MEAN_MOTION": 1.00274559, "ECCENTRICITY": 0.00015238, "INCLINATION": 0.7237, "RA_OF_ASC_NODE": 30.7092, "ARG_OF_PERICENTER": 221.9179, "MEAN_ANOMALY": 285.2229, "EPHEMERIS_TYPE": 0, "CLASSIFICATION_TYPE": "U", "NORAD_CAT_ID": 54743, "ELEMENT_SET_NO": 999, "REV_AT_EPOCH": 1105, "BSTAR": 0, "MEAN_MOTION_DOT": -2e-08, "MEAN_MOTION_DDOT": 0}, "tle": {"line1": "1 54743U 22170C   25341.28274682 -.00000002  00000+0  00000+0 0  9990", "line2": "2 54743   0.7237  30.7092 0001523 221.9179 285.2229  1.00274559 11057"}}, "geometry": {"type": "Point", "coordinates": [26.199844463077334, -0.04043731419313913]}}, {"type": "Feature", "properties": {"norad_id": 55973, "name": "TIANMU-1 03", "group": "weather", "lat": -35.54898742998058, "lon": -41.03379981560228, "alt_km": 452.7871060260304, "timestamp": "2025-12-07T20:38:13.723535+00:00", "meta": {"OBJECT_NAME": "TIANMU-1 03", "OBJECT_ID": "2023-039A", "EPOCH": "2025-12-07T05:40:29.849376", "MEAN_MOTION": 15.4068462, "ECCENTRICITY": 0.00045249, "INCLINATION": 97.511, "RA_OF_ASC_NODE": 143.7358, "ARG_OF_PERICENTER": 76.886, "MEAN_ANOMALY": 283.289, "EPHEMERIS_TYPE": 0, "CLASSIFICATION_TYPE": "U", "NORAD_CAT_ID": 55973, "ELEMENT_SET_NO": 999, "REV_AT_EPOCH": 15121, "BSTAR": 0.00055497117, "MEAN_MOTION_DOT": 0.00022605, "MEAN_MOTION_DDOT": 0}, "tle": {"line1": "1 55973U 23039A   25341.23645659  .00022605  00000+0  55497-3 0  9998", "line2": "2 55973  97.5110 143.7358 0004524  76.8860 283.2890 15.40684620151213"}}, "geometry": {"type": "Point", "coordinates": [-41.03379981560228, -35.54898742998058]}}, {"type": "Feature", "properties": {"norad_id": 55974, "name": "TIANMU-1 04", "group": "weather", "lat": -35.94942875667135, "lon": 149.05479899544105, "alt_km": 450.4152657638688, "timestamp": "2025-12-07T20:38:13.723553+00:00", "meta": {"OBJECT_NAME": "TIANMU-1 04", "OBJECT_ID": "2023-039B", "EPOCH": "2025-12-07T05:12:37.096128", "MEAN_MOTION": 15.41016668, "ECCENTRICITY": 0.00052009, "INCLINATION": 97.5042, "RA_OF_ASC_NODE": 142.9091, "ARG_OF_PERICENTER": 72.4933, "MEAN_ANOMALY": 287.6881, "EPHEMERIS_TYPE": 0, "CLASSIFICATION_TYPE": "U", "NORAD_CAT_ID": 55974, "ELEMENT_SET_NO": 999, "REV_AT_EPOCH": 15121, "BSTAR": 0.00056984361, "MEAN_MOTION_DOT": 0.00023475, "MEAN_MOTION_DDOT": 0}, "tle": {"line1": "1 55974U 23039B   25341.21709602  .00023475  00000+0  56984-3 0  9994", "line2": "2 55974  97.5042 142.9091 0005200  72.4933 287.6881 15.41016668151218"}}, "geometry": {"type": "Point", "coordinates": [149.05479899544105, -35.94942875667135]}}, {"type": "Feature", "properties": {"norad_id": 55975, "name": "TIANMU-1 05", "group": "weather", "lat": 2.173833683427787, "lon": 143.77454637598944, "alt_km": 446.90807698888784, "timestamp": "2025-12-07T20:38:13.723563+00:00", "meta": {"OBJECT_NAME": "TIANMU-1 05", "OBJECT_ID": "2023-039C", "EPOCH": "2025-12-07T06:35:54.835872", "MEAN_MOTION": 15.40644523, "ECCENTRICITY": 0.00043745, "INCLINATION": 97.5088, "RA_OF_ASC_NODE": 143.4607, "ARG_OF_PERICENTER": 93.5526, "MEAN_ANOMALY": 266.6221, "EPHEMERIS_TYPE": 0, "CLASSIFICATION_TYPE": "U", "NORAD_CAT_ID": 55975, "ELEMENT_SET_NO": 999, "REV_AT_EPOCH": 15120, "BSTAR": 0.00055901574, "MEAN_MOTION_DOT": 0.0002274, "MEAN_MOTION_DDOT": 0}, "tle": {"line1": "1 55975U 23039C   25341.27494023  .00022740  00000+0  55902-3 0  9992", "line2": "2 55975  97.5088 143.4607 0004374  93.5526 266.6221 15.40644523151201"}}, "geometry": {"type": "Point", "coordinates": [143.77454637598944, 2.173833683427787]}}, {"type": "Feature", "properties": {"norad_id": 55976, "name": "TIANMU-1 06", "group": "weather", "lat": -48.6814109444595, "lon": 153.15315861501827, "alt_km": 452.0777309984451, "timestamp": "2025-12-07T20:38:13.723573+00:00", "meta": {"OBJECT_NAME": "TIANMU-1 06", "OBJECT_ID": "2023-039D", "EPOCH": "2025-12-07T05:16:01.168608", "MEAN_MOTION": 15.41068958, "ECCENTRICITY": 0.0004685, "INCLINATION": 97.51, "RA_OF_ASC_NODE": 143.8641, "ARG_OF_PERICENTER": 88.9502, "MEAN_ANOMALY": 271.2281, "EPHEMERIS_TYPE": 0, "CLASSIFICATION_TYPE": "U", "NORAD_CAT_ID": 55976, "ELEMENT_SET_NO": 999, "REV_AT_EPOCH": 15121, "BSTAR": 0.00055605124, "MEAN_MOTION_DOT": 0.0002294, "MEAN_MOTION_DDOT": 0}, "tle": {"line1": "1 55976U 23039D   25341.21945797  .00022940  00000+0  55605-3 0  9998", "line2": "2 55976  97.5100 143.8641 0004685  88.9502 271.2281 15.41068958151218"}}, "geometry": {"type": "Point", "coordinates": [153.15315861501827, -48.6814109444595]}}, {"type": "Feature", "properties": {"norad_id": 56232, "name": "FENGYUN 3G", "group": "weather", "lat": 31.549870797341672, "lon": 41.584464893165425, "alt_km": 396.95868821941895, "timestamp": "2025-12-07T20:38:13.723586+00:00", "meta": {"OBJECT_NAME": "FENGYUN 3G", "OBJECT_ID": "2023-055A", "EPOCH": "2025-12-07T06:09:17.858016", "MEAN_MOTION": 15.53165654, "ECCENTRICITY": 0.00092444, "INCLINATION": 49.994, "RA_OF_ASC_NODE": 255.7412, "ARG_OF_PERICENTER": 122.3783, "MEAN_ANOMALY": 237.8081, "EPHEMERIS_TYPE": 0, "CLASSIFICATION_TYPE": "U", "NORAD_CAT_ID": 56232, "ELEMENT_SET_NO": 999, "REV_AT_EPOCH": 15017, "BSTAR": 0.00072207278, "MEAN_MOTION_DOT": 0.00046093, "MEAN_MOTION_DDOT": 0}, "tle": {"line1": "1 56232U 23055A   25341.25645669  .00046093  00000+0  72207-3 0  9993", "line2": "2 56232  49.9940 255.7412 0009244 122.3783 237.8081 15.53165654150170"}}, "geometry": {"type": "Point", "coordinates": [41.584464893165425, 31.549870797341672]}}, {"type": "Feature", "properties": {"norad_id": 57166, "name": "METEOR-M2 3", "group": "weather", "lat": 79.9824335170036, "lon": -23.901619604285596, "alt_km": 802.9808145782017, "timestamp": "2025-12-07T20:38:13.723597+00:00", "meta": {"OBJECT_NAME": "METEOR-M2 3", "OBJECT_ID": "2023-091A", "EPOCH": "2025-12-07T06:44:58.623648", "MEAN_MOTION": 14.24025146, "ECCENTRICITY": 0.00042047, "INCLINATION": 98.6386, "RA_OF_ASC_NODE": 34.9158, "ARG_OF_PERICENTER": 23.7522, "MEAN_ANOMALY": 336.385, "EPHEMERIS_TYPE": 0, "CLASSIFICATION_TYPE": "U", "NORAD_CAT_ID": 57166, "ELEMENT_SET_NO": 999, "REV_AT_EPOCH": 12720, "BSTAR": 4.8237496e-05, "MEAN_MOTION_DOT": 6.7e-07, "MEAN_MOTION_DDOT": 0}, "tle": {"line1": "1 57166U 23091A   25341.28123407  .00000067  00000+0  48237-4 0  9992", "line2": "2 57166  98.6386  34.9158 0004204  23.7522 336.3850 14.24025146127207"}}, "geometry": {"type": "Point", "coordinates": [-23.901619604285596, 79.9824335170036]}}, {"type": "Feature", "properties": {"norad_id": 57399, "name": "TIANMU-1 07", "group": "weather", "lat": -67.14453552983409, "lon": -165.85767406605746, "alt_km": 492.66035318914055, "timestamp": "2025-12-07T20:38:13.723607+00:00", "meta": {"OBJECT_NAME": "TIANMU-1 07", "OBJECT_ID": "2023-101A", "EPOCH": "2025-12-07T05:24:31.364928", "MEAN_MOTION": 15.27953043, "ECCENTRICITY": 0.00056132, "INCLINATION": 97.2879, "RA_OF_ASC_NODE": 31.1973, "ARG_OF_PERICENTER": 95.4546, "MEAN_ANOMALY": 264.7334, "EPHEMERIS_TYPE": 0, "CLASSIFICATION_TYPE": "U", "NORAD_CAT_ID": 57399, "ELEMENT_SET_NO": 999, "REV_AT_EPOCH": 13231, "BSTAR": 0.00042182074, "MEAN_MOTION_DOT": 0.00011444, "MEAN_MOTION_DDOT": 0}, "tle": {"line1": "1 57399U 23101A   25341.22536302  .00011444  00000+0  42182-3 0  9991", "line2": "2 57399  97.2879  31.1973 0005613  95.4546 264.7334 15.27953043132317"}}, "geometry": {"type": "Point", "coordinates": [-165.85767406605746, -67.14453552983409]}}, {"type": "Feature", "properties": {"norad_id": 57400, "name": "TIANMU-1 08", "group": "weather", "lat": 68.89864787339329, "lon": 12.251626204424763, "alt_km": 470.6457553404334, "timestamp": "2025-12-07T20:38:13.723617+00:00", "meta": {"OBJECT_NAME": "TIANMU-1 08", "OBJECT_ID": "2023-101B", "EPOCH": "2025-12-07T06:11:08.552832", "MEAN_MOTION": 15.27938086, "ECCENTRICITY": 0.00075575, "INCLINATION": 97.2867, "RA_OF_ASC_NODE": 31.0279, "ARG_OF_PERICENTER": 99.1458, "MEAN_ANOMALY": 261.0637, "EPHEMERIS_TYPE": 0, "CLASSIFICATION_TYPE": "U", "NORAD_CAT_ID": 57400, "ELEMENT_SET_NO": 999, "REV_AT_EPOCH": 13231, "BSTAR": 0.00038957822, "MEAN_MOTION_DOT": 0.00010562, "MEAN_MOTION_DDOT": 0}, "tle": {"line1": "1 57400U 23101B   25341.25773788  .00010562  00000+0  38958-3 0  9994", "line2": "2 57400  97.2867  31.0279 0007557  99.1458 261.0637 15.27938086132313"}}, "geometry": {"type": "Point", "coordinates": [12.251626204424763, 68.89864787339329]}}]}